start=new Date('2022-11-19T00:00:00.000Z').valueOf();
sats=[{"MEAN_ANOMALY":"355.9690","PERIAPSIS":"562.393","REF_FRAME":"TEME","OBJECT_ID":"2022-099S","ARG_OF_PERICENTER":"4.1541","INCLINATION":"97.6582","TIME_SYSTEM":"UTC","TLE_LINE2":"2 53481  97.6582  81.5740 0000898   4.1541 355.9690 15.01258640 14863","EPHEMERIS_TYPE":"0","MEAN_MOTION_DOT":"0.00000159","RCS_SIZE":"LARGE","BSTAR":"0.00001693600000","APOAPSIS":"563.639","SITE":"AFWTR","FILE":"3662515","CLASSIFICATION_TYPE":"U","ELEMENT_SET_NO":"999","PERIOD":"95.920","LAUNCH_DATE":"2022-08-12","MEAN_ELEMENT_THEORY":"SGP4","COUNTRY_CODE":"US","TLE_LINE1":"1 53481U 22099S   22322.49584002  .00000159  00000-0  16936-4 0  9990","CENTER_NAME":"EARTH","REV_AT_EPOCH":"1486","RA_OF_ASC_NODE":"81.5740","SEMIMAJOR_AXIS":"6941.151","NORAD_CAT_ID":"53481","ECCENTRICITY":"0.00008980","OBJECT_NAME":"STARLINK-4302","EPOCH":"2022-11-18T11:54:00.577728","GP_ID":"218138586","OBJECT_TYPE":"PAYLOAD","MEAN_MOTION":"15.01258640","DECAY_DATE":null,"MEAN_MOTION_DDOT":"0.0000000000000"},{"ARG_OF_PERICENTER":"359.6354","TIME_SYSTEM":"UTC","INCLINATION":"97.6567","TLE_LINE2":"2 53482  97.6567  81.4419 0000697 359.6354   0.4870 15.01264313 14840","PERIAPSIS":"562.515","MEAN_ANOMALY":"0.4870","REF_FRAME":"TEME","OBJECT_ID":"2022-099T","APOAPSIS":"563.482","SITE":"AFWTR","FILE":"3662515","PERIOD":"95.919","ELEMENT_SET_NO":"999","CLASSIFICATION_TYPE":"U","EPHEMERIS_TYPE":"0","MEAN_MOTION_DOT":"-0.00000035","RCS_SIZE":"LARGE","BSTAR":"0.00000183460000","CENTER_NAME":"EARTH","RA_OF_ASC_NODE":"81.4419","REV_AT_EPOCH":"1484","NORAD_CAT_ID":"53482","SEMIMAJOR_AXIS":"6941.134","ECCENTRICITY":"0.00006970","OBJECT_NAME":"STARLINK-4360","LAUNCH_DATE":"2022-08-12","MEAN_ELEMENT_THEORY":"SGP4","TLE_LINE1":"1 53482U 22099T   22322.36277974 -.00000035  00000-0  18346-5 0  9996","COUNTRY_CODE":"US","MEAN_MOTION_DDOT":"0.0000000000000","GP_ID":"218138751","OBJECT_TYPE":"PAYLOAD","EPOCH":"2022-11-18T08:42:24.169536","MEAN_MOTION":"15.01264313","DECAY_DATE":null},{"OBJECT_ID":"2022-099U","MEAN_ANOMALY":"357.2454","PERIAPSIS":"561.311","REF_FRAME":"TEME","INCLINATION":"97.6587","TIME_SYSTEM":"UTC","TLE_LINE2":"2 53483  97.6587  81.3918 0002453   2.8784 357.2454 15.01259272 14830","ARG_OF_PERICENTER":"2.8784","RCS_SIZE":"LARGE","BSTAR":"0.00012985000000","MEAN_MOTION_DOT":"0.00001609","EPHEMERIS_TYPE":"0","FILE":"3662515","CLASSIFICATION_TYPE":"U","ELEMENT_SET_NO":"999","PERIOD":"95.919","APOAPSIS":"564.717","SITE":"AFWTR","MEAN_ELEMENT_THEORY":"SGP4","COUNTRY_CODE":"US","TLE_LINE1":"1 53483U 22099U   22322.29057560  .00001609  00000-0  12985-3 0  9994","LAUNCH_DATE":"2022-08-12","SEMIMAJOR_AXIS":"6941.149","ECCENTRICITY":"0.00024530","NORAD_CAT_ID":"53483","OBJECT_NAME":"STARLINK-4401","CENTER_NAME":"EARTH","RA_OF_ASC_NODE":"81.3918","REV_AT_EPOCH":"1483","MEAN_MOTION":"15.01259272","DECAY_DATE":null,"EPOCH":"2022-11-18T06:58:25.731840","GP_ID":"218139247","OBJECT_TYPE":"PAYLOAD","MEAN_MOTION_DDOT":"0.0000000000000"},{"TLE_LINE1":"1 53484U 22099V   22322.69394361  .00002471  00000-0  19689-3 0  9998","COUNTRY_CODE":"US","MEAN_ELEMENT_THEORY":"SGP4","LAUNCH_DATE":"2022-08-12","NORAD_CAT_ID":"53484","SEMIMAJOR_AXIS":"6941.122","ECCENTRICITY":"0.00016450","OBJECT_NAME":"STARLINK-4426","RA_OF_ASC_NODE":"81.7818","REV_AT_EPOCH":"1489","CENTER_NAME":"EARTH","DECAY_DATE":null,"MEAN_MOTION":"15.01267981","OBJECT_TYPE":"PAYLOAD","GP_ID":"218169524","EPOCH":"2022-11-18T16:39:16.727904","MEAN_MOTION_DDOT":"0.0000000000000","OBJECT_ID":"2022-099V","REF_FRAME":"TEME","PERIAPSIS":"561.845","MEAN_ANOMALY":"341.6141","TLE_LINE2":"2 53484  97.6597  81.7818 0001645  18.5143 341.6141 15.01267981 14892","TIME_SYSTEM":"UTC","INCLINATION":"97.6597","ARG_OF_PERICENTER":"18.5143","RCS_SIZE":"LARGE","BSTAR":"0.00019689000000","EPHEMERIS_TYPE":"0","MEAN_MOTION_DOT":"0.00002471","PERIOD":"95.919","CLASSIFICATION_TYPE":"U","ELEMENT_SET_NO":"999","FILE":"3662753","SITE":"AFWTR","APOAPSIS":"564.129"},{"MEAN_MOTION_DDOT":"0.0000000000000","EPOCH":"2022-11-18T14:55:18.443136","OBJECT_TYPE":"PAYLOAD","GP_ID":"218168697","DECAY_DATE":null,"MEAN_MOTION":"15.01257863","RA_OF_ASC_NODE":"81.7202","REV_AT_EPOCH":"1488","CENTER_NAME":"EARTH","NORAD_CAT_ID":"53485","SEMIMAJOR_AXIS":"6941.153","ECCENTRICITY":"0.00025310","OBJECT_NAME":"STARLINK-4430","LAUNCH_DATE":"2022-08-12","COUNTRY_CODE":"US","TLE_LINE1":"1 53485U 22099W   22322.62174124  .00002168  00000-0  17332-3 0  9991","MEAN_ELEMENT_THEORY":"SGP4","SITE":"AFWTR","APOAPSIS":"564.775","CLASSIFICATION_TYPE":"U","ELEMENT_SET_NO":"999","PERIOD":"95.920","FILE":"3662753","EPHEMERIS_TYPE":"0","MEAN_MOTION_DOT":"0.00002168","BSTAR":"0.00017332000000","RCS_SIZE":"LARGE","ARG_OF_PERICENTER":"1.7045","TLE_LINE2":"2 53485  97.6588  81.7202 0002531   1.7045 358.4187 15.01257863 14883","INCLINATION":"97.6588","TIME_SYSTEM":"UTC","REF_FRAME":"TEME","MEAN_ANOMALY":"358.4187","PERIAPSIS":"561.262","OBJECT_ID":"2022-099W"},{"APOAPSIS":"564.652","SITE":"AFWTR","FILE":"3662515","PERIOD":"95.919","ELEMENT_SET_NO":"999","CLASSIFICATION_TYPE":"U","MEAN_MOTION_DOT":"-0.00000462","EPHEMERIS_TYPE":"0","RCS_SIZE":"LARGE","BSTAR":"-0.00003138500000","ARG_OF_PERICENTER":"9.0309","TIME_SYSTEM":"UTC","INCLINATION":"97.6598","TLE_LINE2":"2 53486  97.6598  81.3875 0002368   9.0309 351.0957 15.01261249 14831","PERIAPSIS":"561.364","MEAN_ANOMALY":"351.0957","REF_FRAME":"TEME","OBJECT_ID":"2022-099X","MEAN_MOTION_DDOT":"0.0000000000000","GP_ID":"218138421","OBJECT_TYPE":"PAYLOAD","EPOCH":"2022-11-18T07:00:44.282016","MEAN_MOTION":"15.01261249","DECAY_DATE":null,"CENTER_NAME":"EARTH","RA_OF_ASC_NODE":"81.3875","REV_AT_EPOCH":"1483","SEMIMAJOR_AXIS":"6941.143","OBJECT_NAME":"STARLINK-4431","NORAD_CAT_ID":"53486","ECCENTRICITY":"0.00023680","LAUNCH_DATE":"2022-08-12","MEAN_ELEMENT_THEORY":"SGP4","TLE_LINE1":"1 53486U 22099X   22322.29217919 -.00000462  00000-0 -31385-4 0  9997","COUNTRY_CODE":"US"},{"ELEMENT_SET_NO":"999","CLASSIFICATION_TYPE":"U","PERIOD":"95.920","FILE":"3662753","SITE":"AFWTR","APOAPSIS":"565.304","BSTAR":"0.00003313600000","RCS_SIZE":"LARGE","EPHEMERIS_TYPE":"0","MEAN_MOTION_DOT":"0.00000366","TLE_LINE2":"2 53487  97.6573  81.7183 0003288  11.6480 348.4820 15.01256734 14889","INCLINATION":"97.6573","TIME_SYSTEM":"UTC","ARG_OF_PERICENTER":"11.6480","OBJECT_ID":"2022-099Y","REF_FRAME":"TEME","MEAN_ANOMALY":"348.4820","PERIAPSIS":"560.740","MEAN_MOTION_DDOT":"0.0000000000000","DECAY_DATE":null,"MEAN_MOTION":"15.01256734","EPOCH":"2022-11-18T14:49:59.542464","OBJECT_TYPE":"PAYLOAD","GP_ID":"218169370","SEMIMAJOR_AXIS":"6941.157","ECCENTRICITY":"0.00032880","NORAD_CAT_ID":"53487","OBJECT_NAME":"STARLINK-4432","RA_OF_ASC_NODE":"81.7183","REV_AT_EPOCH":"1488","CENTER_NAME":"EARTH","COUNTRY_CODE":"US","TLE_LINE1":"1 53487U 22099Y   22322.61805026  .00000366  00000-0  33136-4 0  9993","MEAN_ELEMENT_THEORY":"SGP4","LAUNCH_DATE":"2022-08-12"},{"MEAN_MOTION":"15.01269909","DECAY_DATE":null,"EPOCH":"2022-11-18T16:33:56.499264","GP_ID":"218169844","OBJECT_TYPE":"PAYLOAD","MEAN_MOTION_DDOT":"0.0000000000000","MEAN_ELEMENT_THEORY":"SGP4","COUNTRY_CODE":"US","TLE_LINE1":"1 53488U 22099Z   22322.69023726  .00002147  00000-0  17165-3 0  9993","LAUNCH_DATE":"2022-08-12","NORAD_CAT_ID":"53488","SEMIMAJOR_AXIS":"6941.116","ECCENTRICITY":"0.00020010","OBJECT_NAME":"STARLINK-4421","CENTER_NAME":"EARTH","REV_AT_EPOCH":"1489","RA_OF_ASC_NODE":"81.7842","RCS_SIZE":"LARGE","BSTAR":"0.00017165000000","EPHEMERIS_TYPE":"0","MEAN_MOTION_DOT":"0.00002147","FILE":"3662753","CLASSIFICATION_TYPE":"U","ELEMENT_SET_NO":"999","PERIOD":"95.919","APOAPSIS":"564.370","SITE":"AFWTR","OBJECT_ID":"2022-099Z","MEAN_ANOMALY":"357.9925","PERIAPSIS":"561.592","REF_FRAME":"TEME","INCLINATION":"97.6586","TIME_SYSTEM":"UTC","TLE_LINE2":"2 53488  97.6586  81.7842 0002001   2.1307 357.9925 15.01269909 14891","ARG_OF_PERICENTER":"2.1307"},{"LAUNCH_DATE":"2022-08-12","TLE_LINE1":"1 53489U 22099AA  22322.74949489  .00001851  00000-0  14871-3 0  9995","COUNTRY_CODE":"US","MEAN_ELEMENT_THEORY":"SGP4","RA_OF_ASC_NODE":"81.8503","REV_AT_EPOCH":"1514","CENTER_NAME":"EARTH","OBJECT_NAME":"STARLINK-4392","SEMIMAJOR_AXIS":"6941.151","NORAD_CAT_ID":"53489","ECCENTRICITY":"0.00035560","GP_ID":"218143681","OBJECT_TYPE":"PAYLOAD","EPOCH":"2022-11-18T17:59:16.358496","DECAY_DATE":null,"MEAN_MOTION":"15.01258730","MEAN_MOTION_DDOT":"0.0000000000000","REF_FRAME":"TEME","PERIAPSIS":"560.547","MEAN_ANOMALY":"346.4071","OBJECT_ID":"2022-099AA","ARG_OF_PERICENTER":"13.7249","TLE_LINE2":"2 53489  97.6578  81.8503 0003556  13.7249 346.4071 15.01258730 15141","TIME_SYSTEM":"UTC","INCLINATION":"97.6578","MEAN_MOTION_DOT":"0.00001851","EPHEMERIS_TYPE":"0","RCS_SIZE":"LARGE","BSTAR":"0.00014871000000","SITE":"AFWTR","APOAPSIS":"565.484","PERIOD":"95.920","CLASSIFICATION_TYPE":"U","ELEMENT_SET_NO":"999","FILE":"3662698"},{"TIME_SYSTEM":"UTC","INCLINATION":"97.6574","TLE_LINE2":"2 53490  97.6574  81.7180 0003252  13.0575 347.0733 15.01266143 14886","ARG_OF_PERICENTER":"13.0575","OBJECT_ID":"2022-099AB","PERIAPSIS":"560.736","MEAN_ANOMALY":"347.0733","REF_FRAME":"TEME","FILE":"3662753","PERIOD":"95.919","CLASSIFICATION_TYPE":"U","ELEMENT_SET_NO":"999","APOAPSIS":"565.250","SITE":"AFWTR","BSTAR":"0.00023412000000","RCS_SIZE":"LARGE","EPHEMERIS_TYPE":"0","MEAN_MOTION_DOT":"0.00002950","NORAD_CAT_ID":"53490","SEMIMAJOR_AXIS":"6941.128","ECCENTRICITY":"0.00032520","OBJECT_NAME":"STARLINK-4387","CENTER_NAME":"EARTH","REV_AT_EPOCH":"1488","RA_OF_ASC_NODE":"81.7180","MEAN_ELEMENT_THEORY":"SGP4","TLE_LINE1":"1 53490U 22099AB  22322.61988591  .00002950  00000-0  23412-3 0  9992","COUNTRY_CODE":"US","LAUNCH_DATE":"2022-08-12","MEAN_MOTION_DDOT":"0.0000000000000","MEAN_MOTION":"15.01266143","DECAY_DATE":null,"GP_ID":"218169205","OBJECT_TYPE":"PAYLOAD","EPOCH":"2022-11-18T14:52:38.142624"}];
